<?xml version="1.0" encoding="UTF-8"?>
<kml xmlns="http://www.opengis.net/kml/2.2" xmlns:gx="http://www.google.com/kml/ext/2.2" xmlns:kml="http://www.opengis.net/kml/2.2" xmlns:atom="http://www.w3.org/2005/Atom">
<Document>
	<name>Germany airspace</name>
	<gx:CascadingStyle kml:id="__managed_style_0F18E165F23C24D8E51C">
		<styleUrl>https://earth.google.com/balloon_components/base/1.1.0.0/card_template.kml#main</styleUrl>
		<Style>
			<IconStyle>
				<scale>1.2</scale>
				<Icon>
					<href>https://earth.google.com/earth/document/icon?color=1976d2&amp;id=2000&amp;scale=4</href>
				</Icon>
				<hotSpot x="64" y="128" xunits="pixels" yunits="insetPixels"/>
			</IconStyle>
			<LabelStyle>
			</LabelStyle>
			<LineStyle>
				<color>fff5a542</color>
				<width>4</width>
			</LineStyle>
			<PolyStyle>
				<color>00ffffff</color>
			</PolyStyle>
			<BalloonStyle>
			</BalloonStyle>
		</Style>
	</gx:CascadingStyle>
	<StyleMap id="__managed_style_0EC67493383C24D8E51B">
		<Pair>
			<key>normal</key>
			<styleUrl>#__managed_style_14A96449FE3C24D8E51B</styleUrl>
		</Pair>
		<Pair>
			<key>highlight</key>
			<styleUrl>#__managed_style_0F18E165F23C24D8E51C</styleUrl>
		</Pair>
	</StyleMap>
	<gx:CascadingStyle kml:id="__managed_style_14A96449FE3C24D8E51B">
		<styleUrl>https://earth.google.com/balloon_components/base/1.1.0.0/card_template.kml#main</styleUrl>
		<Style>
			<IconStyle>
				<Icon>
					<href>https://earth.google.com/earth/document/icon?color=1976d2&amp;id=2000&amp;scale=4</href>
				</Icon>
				<hotSpot x="64" y="128" xunits="pixels" yunits="insetPixels"/>
			</IconStyle>
			<LabelStyle>
			</LabelStyle>
			<LineStyle>
				<color>fff5a542</color>
				<width>2.66667</width>
			</LineStyle>
			<PolyStyle>
				<color>00ffffff</color>
			</PolyStyle>
			<BalloonStyle>
			</BalloonStyle>
		</Style>
	</gx:CascadingStyle>
	<gx:CascadingStyle kml:id="__managed_style_1C0EBCF20F3C2457214C">
		<styleUrl>https://earth.google.com/balloon_components/base/1.1.0.0/card_template.kml#main</styleUrl>
		<Style>
			<IconStyle>
				<Icon>
					<href>https://earth.google.com/earth/document/icon?color=1976d2&amp;id=2000&amp;scale=4</href>
				</Icon>
				<hotSpot x="64" y="128" xunits="pixels" yunits="insetPixels"/>
			</IconStyle>
			<LabelStyle>
			</LabelStyle>
			<LineStyle>
				<color>ff6b7900</color>
				<width>4</width>
			</LineStyle>
			<PolyStyle>
				<color>00ffffff</color>
			</PolyStyle>
			<BalloonStyle>
			</BalloonStyle>
		</Style>
	</gx:CascadingStyle>
	<gx:CascadingStyle kml:id="__managed_style_2DAC68F0093C2457214C">
		<styleUrl>https://earth.google.com/balloon_components/base/1.1.0.0/card_template.kml#main</styleUrl>
		<Style>
			<IconStyle>
				<scale>1.2</scale>
				<Icon>
					<href>https://earth.google.com/earth/document/icon?color=1976d2&amp;id=2000&amp;scale=4</href>
				</Icon>
				<hotSpot x="64" y="128" xunits="pixels" yunits="insetPixels"/>
			</IconStyle>
			<LabelStyle>
			</LabelStyle>
			<LineStyle>
				<color>ff6b7900</color>
				<width>6</width>
			</LineStyle>
			<PolyStyle>
				<color>00ffffff</color>
			</PolyStyle>
			<BalloonStyle>
			</BalloonStyle>
		</Style>
	</gx:CascadingStyle>
	<StyleMap id="__managed_style_0A8DA971823C2457214C">
		<Pair>
			<key>normal</key>
			<styleUrl>#__managed_style_1C0EBCF20F3C2457214C</styleUrl>
		</Pair>
		<Pair>
			<key>highlight</key>
			<styleUrl>#__managed_style_2DAC68F0093C2457214C</styleUrl>
		</Pair>
	</StyleMap>
	<gx:CascadingStyle kml:id="__managed_style_258510F9D03C245710B4">
		<styleUrl>https://earth.google.com/balloon_components/base/1.1.0.0/card_template.kml#main</styleUrl>
		<Style>
			<IconStyle>
				<scale>1.2</scale>
				<Icon>
					<href>https://earth.google.com/earth/document/icon?color=1976d2&amp;id=2000&amp;scale=4</href>
				</Icon>
				<hotSpot x="64" y="128" xunits="pixels" yunits="insetPixels"/>
			</IconStyle>
			<LabelStyle>
			</LabelStyle>
			<LineStyle>
				<color>ff2f2fd3</color>
				<width>6</width>
			</LineStyle>
			<PolyStyle>
				<color>00ffffff</color>
			</PolyStyle>
			<BalloonStyle>
			</BalloonStyle>
		</Style>
	</gx:CascadingStyle>
	<StyleMap id="__managed_style_05E1F1588F3C245710B4">
		<Pair>
			<key>normal</key>
			<styleUrl>#__managed_style_1C588810E83C245710B4</styleUrl>
		</Pair>
		<Pair>
			<key>highlight</key>
			<styleUrl>#__managed_style_258510F9D03C245710B4</styleUrl>
		</Pair>
	</StyleMap>
	<gx:CascadingStyle kml:id="__managed_style_1C588810E83C245710B4">
		<styleUrl>https://earth.google.com/balloon_components/base/1.1.0.0/card_template.kml#main</styleUrl>
		<Style>
			<IconStyle>
				<Icon>
					<href>https://earth.google.com/earth/document/icon?color=1976d2&amp;id=2000&amp;scale=4</href>
				</Icon>
				<hotSpot x="64" y="128" xunits="pixels" yunits="insetPixels"/>
			</IconStyle>
			<LabelStyle>
			</LabelStyle>
			<LineStyle>
				<color>ff2f2fd3</color>
				<width>4</width>
			</LineStyle>
			<PolyStyle>
				<color>00ffffff</color>
			</PolyStyle>
			<BalloonStyle>
			</BalloonStyle>
		</Style>
	</gx:CascadingStyle>
	<gx:CascadingStyle kml:id="__managed_style_286F1F036E3C244E89B7">
		<styleUrl>https://earth.google.com/balloon_components/base/1.1.0.0/card_template.kml#main</styleUrl>
		<Style>
			<IconStyle>
				<scale>1.2</scale>
				<Icon>
					<href>https://earth.google.com/earth/document/icon?color=1976d2&amp;id=2000&amp;scale=4</href>
				</Icon>
				<hotSpot x="64" y="128" xunits="pixels" yunits="insetPixels"/>
			</IconStyle>
			<LabelStyle>
			</LabelStyle>
			<LineStyle>
				<color>ff2dc0fb</color>
				<width>6</width>
			</LineStyle>
			<PolyStyle>
				<color>40ffffff</color>
			</PolyStyle>
			<BalloonStyle>
			</BalloonStyle>
		</Style>
	</gx:CascadingStyle>
	<gx:CascadingStyle kml:id="__managed_style_1D2E1703863C244E89B7">
		<styleUrl>https://earth.google.com/balloon_components/base/1.1.0.0/card_template.kml#main</styleUrl>
		<Style>
			<IconStyle>
				<Icon>
					<href>https://earth.google.com/earth/document/icon?color=1976d2&amp;id=2000&amp;scale=4</href>
				</Icon>
				<hotSpot x="64" y="128" xunits="pixels" yunits="insetPixels"/>
			</IconStyle>
			<LabelStyle>
			</LabelStyle>
			<LineStyle>
				<color>ff2dc0fb</color>
				<width>4</width>
			</LineStyle>
			<PolyStyle>
				<color>40ffffff</color>
			</PolyStyle>
			<BalloonStyle>
			</BalloonStyle>
		</Style>
	</gx:CascadingStyle>
	<StyleMap id="__managed_style_09ED6A0FDE3C244E89B7">
		<Pair>
			<key>normal</key>
			<styleUrl>#__managed_style_1D2E1703863C244E89B7</styleUrl>
		</Pair>
		<Pair>
			<key>highlight</key>
			<styleUrl>#__managed_style_286F1F036E3C244E89B7</styleUrl>
		</Pair>
	</StyleMap>
	<Placemark id="068762F0BB3C24462BA7">
		<name>RWY 26-8</name>
		<description><![CDATA[<div>{<br></div><div>"type": "runway",<br></div><div>"airport": "Wiesbaden",<br></div><div>"runways": ["26", "8"]<br></div><div>}<br></div>]]></description>
		<LookAt>
			<longitude>8.324816668851479</longitude>
			<latitude>50.05050385314001</latitude>
			<altitude>137.4282965005724</altitude>
			<heading>-6.437068666299354</heading>
			<tilt>0.1208788621761615</tilt>
			<gx:fovy>35</gx:fovy>
			<range>2929.161458646704</range>
			<altitudeMode>absolute</altitudeMode>
		</LookAt>
		<styleUrl>#__managed_style_09ED6A0FDE3C244E89B7</styleUrl>
		<Polygon>
			<outerBoundaryIs>
				<LinearRing>
					<coordinates>
						8.31111127631765,50.04688150175801,0 8.339937074184302,50.05244427568908,0 8.339777379131322,50.05279507883673,0 8.310952796425401,50.04723307796507,0 8.31111127631765,50.04688150175801,0 
					</coordinates>
				</LinearRing>
			</outerBoundaryIs>
		</Polygon>
	</Placemark>
	<Placemark id="06D6C2EA1E3C244742F4">
		<name>HS1</name>
		<description><![CDATA[<div>{<br></div><div>"type": "hold short",<br></div><div>"airport": "Wiesbaden"<br></div><div>}<br></div>]]></description>
		<LookAt>
			<longitude>8.338647600958646</longitude>
			<latitude>50.05158562803781</latitude>
			<altitude>138.8643519781767</altitude>
			<heading>-6.436636084596405</heading>
			<tilt>0.1208330372678971</tilt>
			<gx:fovy>35</gx:fovy>
			<range>512.8786005080474</range>
			<altitudeMode>absolute</altitudeMode>
		</LookAt>
		<styleUrl>#__managed_style_09ED6A0FDE3C244E89B7</styleUrl>
		<Polygon>
			<outerBoundaryIs>
				<LinearRing>
					<coordinates>
						8.339682650236593,50.05214268387573,0 8.338568528884679,50.05121975289653,0 8.338676838221257,50.05101119178511,0 8.340218130445766,50.05130212495283,0 8.340688136795308,50.05171382781009,0 8.34056824343163,50.05204189362089,0 8.340158323652869,50.05222171027756,0 8.339682650236593,50.05214268387573,0 
					</coordinates>
				</LinearRing>
			</outerBoundaryIs>
		</Polygon>
	</Placemark>
	<Placemark id="0A910377CC3C244803D8">
		<name>HS2</name>
		<description><![CDATA[<div>{<br></div><div>"type": "hold short",<br></div><div>"airport": "Wiesbaden"<br></div><div>}<br></div>]]></description>
		<LookAt>
			<longitude>8.338990058256385</longitude>
			<latitude>50.05264548516535</latitude>
			<altitude>139.2291000010791</altitude>
			<heading>-6.436373557256584</heading>
			<tilt>0.1208330285116668</tilt>
			<gx:fovy>35</gx:fovy>
			<range>512.5139241597208</range>
			<altitudeMode>absolute</altitudeMode>
		</LookAt>
		<styleUrl>#__managed_style_09ED6A0FDE3C244E89B7</styleUrl>
		<Polygon>
			<outerBoundaryIs>
				<LinearRing>
					<coordinates>
						8.339406621859398,50.0529824224103,0 8.339712760453233,50.05303675569275,0 8.33957121695583,50.05326022050999,0 8.339252352687481,50.05341881020892,0 8.338746425134529,50.05345996262508,0 8.33843185250962,50.0534140918928,0 8.338513187982278,50.05323624843776,0 8.338998500112019,50.05319139761913,0 8.339178144949265,50.0530475949672,0 8.339069856170623,50.05292656031936,0 8.339406621859398,50.0529824224103,0 
					</coordinates>
				</LinearRing>
			</outerBoundaryIs>
		</Polygon>
	</Placemark>
	<Placemark id="08096A88183C24487069">
		<name>HS3</name>
		<description><![CDATA[<div>{<br></div><div>"type": "hold short",<br></div><div>"airport": "Wiesbaden"<br></div><div>}<br></div>]]></description>
		<LookAt>
			<longitude>8.312664341760939</longitude>
			<latitude>50.046574613533</latitude>
			<altitude>136.7730590994338</altitude>
			<heading>-6.441096828170592</heading>
			<tilt>0.1208298045711317</tilt>
			<gx:fovy>35</gx:fovy>
			<range>342.7219235954545</range>
			<altitudeMode>absolute</altitudeMode>
		</LookAt>
		<styleUrl>#__managed_style_09ED6A0FDE3C244E89B7</styleUrl>
		<Polygon>
			<outerBoundaryIs>
				<LinearRing>
					<coordinates>
						8.312503826017284,50.04613718737899,0 8.312707509679999,50.04641076836366,0 8.311766364498713,50.04671128968373,0 8.311543783414248,50.04644867420977,0 8.312503826017284,50.04613718737899,0 
					</coordinates>
				</LinearRing>
			</outerBoundaryIs>
		</Polygon>
	</Placemark>
	<Placemark id="0477371FB33C244C27C1">
		<name>TWR</name>
		<description><![CDATA[<div>{<br></div><div>"type": "ATZ",<br></div><div>"airport": "Wiesbaden",<br></div><div>"frequencies": {<br></div><div>&nbsp;&nbsp;&nbsp;&nbsp;&nbsp; "base": 240.300,<br></div><div>&nbsp;&nbsp;&nbsp;&nbsp;&nbsp; "clearance": 252.450,<br></div><div>&nbsp;&nbsp;&nbsp;&nbsp;&nbsp; "ground": 313.550,<br></div><div>&nbsp;&nbsp;&nbsp;&nbsp;&nbsp; "tower": 240.950,<br></div><div>&nbsp;&nbsp;&nbsp;&nbsp;&nbsp; "ATIS": 250.900<br></div><div>&nbsp;&nbsp;&nbsp; },<br></div><div>"vertical": {<br></div><div>&nbsp; "min": "SFC",<br></div><div>&nbsp; "max": 5000<br></div><div>},<br></div><div>"elevation": 140,<br></div><div><div>"preferred": "26"<br></div></div><div>}<br></div>]]></description>
		<LookAt>
			<longitude>8.457996658461727</longitude>
			<latitude>50.06806752707703</latitude>
			<altitude>125.9344107013505</altitude>
			<heading>353.4775782361315</heading>
			<tilt>0</tilt>
			<gx:fovy>35</gx:fovy>
			<range>162401.4529084973</range>
			<altitudeMode>absolute</altitudeMode>
		</LookAt>
		<styleUrl>#__managed_style_05E1F1588F3C245710B4</styleUrl>
		<Polygon>
			<outerBoundaryIs>
				<LinearRing>
					<coordinates>
						8.513509519741934,50.03437778673743,0 8.432832949517904,50.1605165026936,0 8.124940362276352,50.0832988756026,0 8.207326975864913,49.95492481139041,0 8.513509519741934,50.03437778673743,0 
					</coordinates>
				</LinearRing>
			</outerBoundaryIs>
		</Polygon>
	</Placemark>
	<Placemark id="035534C9173C244D4351">
		<name>APP</name>
		<description><![CDATA[<div>{<br></div><div>"type": "approach",<br></div><div>"airport": "Wiesbaden",<br></div><div>"frequency": 372.850,<br></div><div>"vertical": {<br></div><div>&nbsp; "min": "SFC",<br></div><div>&nbsp; "max": 10000<br></div><div>},<br></div><div>"transitions" :<br></div><div>&nbsp; {<br></div><div>&nbsp; &nbsp; "altitude": 5000,<br></div><div>&nbsp; &nbsp; "level": 80<br></div><div>&nbsp; }<br></div><div>}&nbsp;<br></div>]]></description>
		<LookAt>
			<longitude>7.140433761317498</longitude>
			<latitude>49.61673275574736</latitude>
			<altitude>431.7069782393631</altitude>
			<heading>349.9212384965156</heading>
			<tilt>0</tilt>
			<gx:fovy>35</gx:fovy>
			<range>532256.7227053642</range>
			<altitudeMode>absolute</altitudeMode>
		</LookAt>
		<styleUrl>#__managed_style_0A8DA971823C2457214C</styleUrl>
		<Polygon>
			<outerBoundaryIs>
				<LinearRing>
					<coordinates>
						7.969822252490424,49.71329088223409,0 8.953585942468365,49.95656060230606,0 8.655852254843763,50.40835368354223,0 7.672819260647284,50.14838002182719,0 7.969822252490424,49.71329088223409,0 
					</coordinates>
				</LinearRing>
			</outerBoundaryIs>
		</Polygon>
	</Placemark>
	<Placemark id="041DEB1E9B3C2455F580">
		<name>RDR</name>
		<description><![CDATA[<div>{<br></div><div>"type": "radar",<br></div><div>"name": "<span style="font-style: normal; font-variant-ligatures: normal; font-variant-caps: normal; font-weight: 400; letter-spacing: normal; orphans: 2; text-align: start; text-indent: 0px; text-transform: none; widows: 2; word-spacing: 0px; white-space: break-spaces; text-decoration-thickness: initial; text-decoration-style: initial; text-decoration-color: initial; float: none; display: inline;"><span class="font" style="font-family: &quot;gg sans&quot;, &quot;Noto Sans&quot;, &quot;Helvetica Neue&quot;, Helvetica, Arial, sans-serif;"><span class="size" style="font-size: 16px;">Langen</span></span></span>",<br></div><div>"frequency": 359.675,<br></div><div>"vertical": {<br></div><div>&nbsp; "min": "SFC",<br></div><div>&nbsp; "max": 10000<br></div><div>},<br></div><div>"transitions" :<br></div><div>&nbsp; {<br></div><div>&nbsp; &nbsp; "altitude": 5000,<br></div><div>&nbsp; &nbsp; "level": 80<br></div><div>&nbsp; }<br></div><div>}</div>]]></description>
		<LookAt>
			<longitude>10.73105794508307</longitude>
			<latitude>49.54525740347604</latitude>
			<altitude>217.0274180430634</altitude>
			<heading>358.0017977457325</heading>
			<tilt>0</tilt>
			<gx:fovy>35</gx:fovy>
			<range>1272488.718975484</range>
			<altitudeMode>absolute</altitudeMode>
		</LookAt>
		<styleUrl>#__managed_style_0EC67493383C24D8E51B</styleUrl>
		<Polygon>
			<outerBoundaryIs>
				<LinearRing>
					<coordinates>
						7.539569106349235,47.8310656009356,0 7.767889884769916,47.51221930298851,0 8.53495595392641,47.57502994939033,0 9.599400961592844,47.39244633839734,0 10.51328745042421,47.4380278040722,0 12.14038102862257,47.53420624548652,0 13.18256182703844,47.61190480674107,0 13.08334652562663,47.91888985590546,0 12.98436275934691,48.16233056247056,0 13.28936907562889,48.31835205858152,0 13.88504381432552,48.58870361158012,0 13.69133949312578,48.85792627152004,0 13.2607943749955,49.17565504848312,0 12.52134466495943,49.80763792390207,0 12.28845215365149,50.2769238934896,0 12.84374744839808,50.47454070295807,0 14.19674623145103,50.86825336142725,0 14.95331917713008,50.90903562674126,0 14.81710744804465,51.89201423131897,0 14.4357307214074,52.76622917728673,0 14.29069227467494,53.41003665002304,0 14.15344288419002,54.0869052374811,0 13.42838775907807,54.81325410406989,0 12.18737968846387,54.24173350495214,0 11.06979879840863,54.05573821352374,0 11.44495073239528,54.49956559968897,0 10.17526204871346,54.88263194542844,0 8.127758479234505,54.8514849321022,0 8.458179410363499,54.23447564090731,0 8.100242608534069,53.88062827774937,0 7.210744663449795,53.66509743014208,0 7.229864602358984,53.31393523854439,0 7.246926655553178,52.45781602152893,0 6.230282903589021,51.7900276669509,0 6.063142345562209,51.06708200537736,0 6.207479170205509,50.37764780976839,0 6.511725255222927,49.24726064741255,0 8.332093829192203,48.91957064008933,0 7.539569106349235,47.8310656009356,0 
					</coordinates>
				</LinearRing>
			</outerBoundaryIs>
		</Polygon>
	</Placemark>
</Document>
</kml>
